FENGYUN 1C DEB          
1 38715U 99025ETG 17342.12936665  .00001079  00000-0  64460-3 0  9994
2 38715  98.1921 318.3591 0163058  61.3991 300.3473 14.02522905518822
